NUSHSAT1                
1 63211U 25052B   26068.64700493  .00023034  00000+0  74857-3 0  9997
2 63211  97.4095 325.7239 0005501  84.7512 275.4357 15.31903202 54882
STARLINK-34460          
1 66099U 25236P   26068.39320323  .00013122  00000+0  45448-3 0  9991
2 66099  53.1578 104.9334 0001366  59.2277 300.8858 15.30192746 22906
